SL-16 R/B               
1 22566U 93016B   26002.97920958 -.00000010  00000+0  19407-4 0  9995
2 22566  71.0089 353.1933 0008107  54.5769 305.6110 14.15296279692871
COSMOS 2242             
1 22626U 93024A   26002.97046544  .00004437  00000+0  39016-3 0  9994
2 22626  82.5197 329.5504 0016804 160.3383 199.8491 14.96217107770567
SL-16 R/B               
1 22803U 93059B   26002.83611526 -.00000057  00000+0 -41469-5 0  9995
2 22803  70.9900 149.9997 0019194 305.7807  54.1532 14.17219496670203
ARIANE 40 R/B           
1 22830U 93061H   26002.77769884  .00000579  00000+0  22795-3 0  9998
2 22830  98.5045  72.9221 0011753 117.6567 242.5811 14.32818484684667
COSMOS 2278             
1 23087U 94023A   26002.96561317  .00000463  00000+0  26673-3 0  9995
2 23087  71.0543 312.6020 0007405 141.0523 219.1134 14.14354681635516
SL-16 R/B               
1 23088U 94023B   26002.97124278  .00000190  00000+0  12298-3 0  9993
2 23088  70.9978 208.9000 0002540 355.1568   4.9530 14.14999171636794
SL-16 R/B               
1 23343U 94074B   26002.98164113  .00000995  00000+0  14024-3 0  9998
2 23343  97.7181  36.4398 0007978  77.9863 342.8368 14.79319427677533
SL-16 R/B               
1 23405U 94077B   26002.76649159 -.00000132  00000+0 -42739-4 0  9994
2 23405  70.9825 131.1796 0005020 267.2227  92.8322 14.15550121606902
ARIANE 40+ R/B          
1 23561U 95021B   26002.80452742  .00000661  00000+0  22506-3 0  9996
2 23561  98.4623  75.1367 0006402 347.8737 123.9221 14.39715187609765
SL-16 R/B               
1 23705U 95058B   26002.98224729  .00000319  00000+0  18741-3 0  9993
2 23705  71.0224 318.2055 0014243 226.6848 133.3088 14.15484063558559
SL-16 R/B               
1 24298U 96051B   26002.94771856  .00000049  00000+0  53451-4 0  9997
2 24298  70.7599 314.3925 0019396 235.3457 124.5835 14.12399223512369
ORBVIEW 2 (SEASTAR)     
1 24883U 97037A   26002.96634620  .00000629  00000+0  23518-3 0  9995
2 24883  98.8471 165.5771 0001359 241.2558 118.8490 14.35436549499042
