CCSDS_OMM_VERS = 2.0
CREATION_DATE  = 
ORIGINATOR     = 

OBJECT_NAME    = SL-16 R/B
OBJECT_ID      = 1993-016B
CENTER_NAME    = EARTH
REF_FRAME      = TEME
TIME_SYSTEM    = UTC
MEAN_ELEMENT_THEORY = SGP/SGP4

EPOCH          = 2026-01-02T23:30:03.707712
MEAN_MOTION    = 14.15296279
ECCENTRICITY   = .00081077
INCLINATION    = 71.0089
RA_OF_ASC_NODE = 353.1933
ARG_OF_PERICENTER = 54.5769
MEAN_ANOMALY   = 305.6110

EPHEMERIS_TYPE = 0
CLASSIFICATION_TYPE = U
NORAD_CAT_ID   = 22566
ELEMENT_SET_NO = 999
REV_AT_EPOCH   = 69287
BSTAR          = .19406838E-4
MEAN_MOTION_DOT = -.1E-6
MEAN_MOTION_DDOT = 0

CCSDS_OMM_VERS = 2.0
CREATION_DATE  = 
ORIGINATOR     = 

OBJECT_NAME    = COSMOS 2242
OBJECT_ID      = 1993-024A
CENTER_NAME    = EARTH
REF_FRAME      = TEME
TIME_SYSTEM    = UTC
MEAN_ELEMENT_THEORY = SGP/SGP4

EPOCH          = 2026-01-02T23:17:28.214016
MEAN_MOTION    = 14.96217107
ECCENTRICITY   = .00168045
INCLINATION    = 82.5197
RA_OF_ASC_NODE = 329.5504
ARG_OF_PERICENTER = 160.3383
MEAN_ANOMALY   = 199.8491

EPHEMERIS_TYPE = 0
CLASSIFICATION_TYPE = U
NORAD_CAT_ID   = 22626
ELEMENT_SET_NO = 999
REV_AT_EPOCH   = 77056
BSTAR          = .39016107E-3
MEAN_MOTION_DOT = .4437E-4
MEAN_MOTION_DDOT = 0

CCSDS_OMM_VERS = 2.0
CREATION_DATE  = 
ORIGINATOR     = 

OBJECT_NAME    = SL-16 R/B
OBJECT_ID      = 1993-059B
CENTER_NAME    = EARTH
REF_FRAME      = TEME
TIME_SYSTEM    = UTC
MEAN_ELEMENT_THEORY = SGP/SGP4

EPOCH          = 2026-01-02T20:04:00.358464
MEAN_MOTION    = 14.17219496
ECCENTRICITY   = .00191941
INCLINATION    = 70.9900
RA_OF_ASC_NODE = 149.9997
ARG_OF_PERICENTER = 305.7807
MEAN_ANOMALY   = 54.1532

EPHEMERIS_TYPE = 0
CLASSIFICATION_TYPE = U
NORAD_CAT_ID   = 22803
ELEMENT_SET_NO = 999
REV_AT_EPOCH   = 67020
BSTAR          = -.4146918E-5
MEAN_MOTION_DOT = -.57E-6
MEAN_MOTION_DDOT = 0

CCSDS_OMM_VERS = 2.0
CREATION_DATE  = 
ORIGINATOR     = 

OBJECT_NAME    = ARIANE 40 R/B
OBJECT_ID      = 1993-061H
CENTER_NAME    = EARTH
REF_FRAME      = TEME
TIME_SYSTEM    = UTC
MEAN_ELEMENT_THEORY = SGP/SGP4

EPOCH          = 2026-01-02T18:39:53.179776
MEAN_MOTION    = 14.32818484
ECCENTRICITY   = .00117537
INCLINATION    = 98.5045
RA_OF_ASC_NODE = 72.9221
ARG_OF_PERICENTER = 117.6567
MEAN_ANOMALY   = 242.5811

EPHEMERIS_TYPE = 0
CLASSIFICATION_TYPE = U
NORAD_CAT_ID   = 22830
ELEMENT_SET_NO = 999
REV_AT_EPOCH   = 68466
BSTAR          = .22794909E-3
MEAN_MOTION_DOT = .579E-5
MEAN_MOTION_DDOT = 0

CCSDS_OMM_VERS = 2.0
CREATION_DATE  = 
ORIGINATOR     = 

OBJECT_NAME    = COSMOS 2278
OBJECT_ID      = 1994-023A
CENTER_NAME    = EARTH
REF_FRAME      = TEME
TIME_SYSTEM    = UTC
MEAN_ELEMENT_THEORY = SGP/SGP4

EPOCH          = 2026-01-02T23:10:28.977888
MEAN_MOTION    = 14.14354681
ECCENTRICITY   = .00074052
INCLINATION    = 71.0543
RA_OF_ASC_NODE = 312.6020
ARG_OF_PERICENTER = 141.0523
MEAN_ANOMALY   = 219.1134

EPHEMERIS_TYPE = 0
CLASSIFICATION_TYPE = U
NORAD_CAT_ID   = 23087
ELEMENT_SET_NO = 999
REV_AT_EPOCH   = 63551
BSTAR          = .26673057E-3
MEAN_MOTION_DOT = .463E-5
MEAN_MOTION_DDOT = 0

CCSDS_OMM_VERS = 2.0
CREATION_DATE  = 
ORIGINATOR     = 

OBJECT_NAME    = SL-16 R/B
OBJECT_ID      = 1994-023B
CENTER_NAME    = EARTH
REF_FRAME      = TEME
TIME_SYSTEM    = UTC
MEAN_ELEMENT_THEORY = SGP/SGP4

EPOCH          = 2026-01-02T23:18:35.376192
MEAN_MOTION    = 14.14999171
ECCENTRICITY   = .000254
INCLINATION    = 70.9978
RA_OF_ASC_NODE = 208.9000
ARG_OF_PERICENTER = 355.1568
MEAN_ANOMALY   = 4.9530

EPHEMERIS_TYPE = 0
CLASSIFICATION_TYPE = U
NORAD_CAT_ID   = 23088
ELEMENT_SET_NO = 999
REV_AT_EPOCH   = 63679
BSTAR          = .12298213E-3
MEAN_MOTION_DOT = .19E-5
MEAN_MOTION_DDOT = 0

CCSDS_OMM_VERS = 2.0
CREATION_DATE  = 
ORIGINATOR     = 

OBJECT_NAME    = SL-16 R/B
OBJECT_ID      = 1994-074B
CENTER_NAME    = EARTH
REF_FRAME      = TEME
TIME_SYSTEM    = UTC
MEAN_ELEMENT_THEORY = SGP/SGP4

EPOCH          = 2026-01-02T23:33:33.793632
MEAN_MOTION    = 14.79319427
ECCENTRICITY   = .00079783
INCLINATION    = 97.7181
RA_OF_ASC_NODE = 36.4398
ARG_OF_PERICENTER = 77.9863
MEAN_ANOMALY   = 342.8368

EPHEMERIS_TYPE = 0
CLASSIFICATION_TYPE = U
NORAD_CAT_ID   = 23343
ELEMENT_SET_NO = 999
REV_AT_EPOCH   = 67753
BSTAR          = .14024305E-3
MEAN_MOTION_DOT = .995E-5
MEAN_MOTION_DDOT = 0

CCSDS_OMM_VERS = 2.0
CREATION_DATE  = 
ORIGINATOR     = 

OBJECT_NAME    = SL-16 R/B
OBJECT_ID      = 1994-077B
CENTER_NAME    = EARTH
REF_FRAME      = TEME
TIME_SYSTEM    = UTC
MEAN_ELEMENT_THEORY = SGP/SGP4

EPOCH          = 2026-01-02T18:23:44.873376
MEAN_MOTION    = 14.15550121
ECCENTRICITY   = .00050201
INCLINATION    = 70.9825
RA_OF_ASC_NODE = 131.1796
ARG_OF_PERICENTER = 267.2227
MEAN_ANOMALY   = 92.8322

EPHEMERIS_TYPE = 0
CLASSIFICATION_TYPE = U
NORAD_CAT_ID   = 23405
ELEMENT_SET_NO = 999
REV_AT_EPOCH   = 60690
BSTAR          = -.42738569E-4
MEAN_MOTION_DOT = -.132E-5
MEAN_MOTION_DDOT = 0

CCSDS_OMM_VERS = 2.0
CREATION_DATE  = 
ORIGINATOR     = 

OBJECT_NAME    = ARIANE 40+ R/B
OBJECT_ID      = 1995-021B
CENTER_NAME    = EARTH
REF_FRAME      = TEME
TIME_SYSTEM    = UTC
MEAN_ELEMENT_THEORY = SGP/SGP4

EPOCH          = 2026-01-02T19:18:31.169088
MEAN_MOTION    = 14.39715187
ECCENTRICITY   = .00064029
INCLINATION    = 98.4623
RA_OF_ASC_NODE = 75.1367
ARG_OF_PERICENTER = 347.8737
MEAN_ANOMALY   = 123.9221

EPHEMERIS_TYPE = 0
CLASSIFICATION_TYPE = U
NORAD_CAT_ID   = 23561
ELEMENT_SET_NO = 999
REV_AT_EPOCH   = 60976
BSTAR          = .22506197E-3
MEAN_MOTION_DOT = .661E-5
MEAN_MOTION_DDOT = 0

CCSDS_OMM_VERS = 2.0
CREATION_DATE  = 
ORIGINATOR     = 

OBJECT_NAME    = SL-16 R/B
OBJECT_ID      = 1995-058B
CENTER_NAME    = EARTH
REF_FRAME      = TEME
TIME_SYSTEM    = UTC
MEAN_ELEMENT_THEORY = SGP/SGP4

EPOCH          = 2026-01-02T23:34:26.165856
MEAN_MOTION    = 14.15484063
ECCENTRICITY   = .00142432
INCLINATION    = 71.0224
RA_OF_ASC_NODE = 318.2055
ARG_OF_PERICENTER = 226.6848
MEAN_ANOMALY   = 133.3088

EPHEMERIS_TYPE = 0
CLASSIFICATION_TYPE = U
NORAD_CAT_ID   = 23705
ELEMENT_SET_NO = 999
REV_AT_EPOCH   = 55855
BSTAR          = .18741387E-3
MEAN_MOTION_DOT = .319E-5
MEAN_MOTION_DDOT = 0

CCSDS_OMM_VERS = 2.0
CREATION_DATE  = 
ORIGINATOR     = 

OBJECT_NAME    = SL-16 R/B
OBJECT_ID      = 1996-051B
CENTER_NAME    = EARTH
REF_FRAME      = TEME
TIME_SYSTEM    = UTC
MEAN_ELEMENT_THEORY = SGP/SGP4

EPOCH          = 2026-01-02T22:44:42.883584
MEAN_MOTION    = 14.12399223
ECCENTRICITY   = .0019396
INCLINATION    = 70.7599
RA_OF_ASC_NODE = 314.3925
ARG_OF_PERICENTER = 235.3457
MEAN_ANOMALY   = 124.5835

EPHEMERIS_TYPE = 0
CLASSIFICATION_TYPE = U
NORAD_CAT_ID   = 24298
ELEMENT_SET_NO = 999
REV_AT_EPOCH   = 51236
BSTAR          = .53451186E-4
MEAN_MOTION_DOT = .49E-6
MEAN_MOTION_DDOT = 0

CCSDS_OMM_VERS = 2.0
CREATION_DATE  = 
ORIGINATOR     = 

OBJECT_NAME    = ORBVIEW 2 (SEASTAR)
OBJECT_ID      = 1997-037A
CENTER_NAME    = EARTH
REF_FRAME      = TEME
TIME_SYSTEM    = UTC
MEAN_ELEMENT_THEORY = SGP/SGP4

EPOCH          = 2026-01-02T23:11:32.311680
MEAN_MOTION    = 14.35436549
ECCENTRICITY   = .00013597
INCLINATION    = 98.8471
RA_OF_ASC_NODE = 165.5771
ARG_OF_PERICENTER = 241.2558
MEAN_ANOMALY   = 118.8490

EPHEMERIS_TYPE = 0
CLASSIFICATION_TYPE = U
NORAD_CAT_ID   = 24883
ELEMENT_SET_NO = 999
REV_AT_EPOCH   = 49904
BSTAR          = .23517583E-3
MEAN_MOTION_DOT = .629E-5
MEAN_MOTION_DDOT = 0

